ONEWEB-0395             
1 50475U 21132G   25250.25861173 -.00000042  00000+0 -15563-3 0  9997
2 50475  87.8774  77.4523 0001817  96.7240 263.4095 13.11418756178638
ONEWEB-0396             
1 50476U 21132H   25250.14776255  .00000002  00000+0 -28655-4 0  9994
2 50476  87.9177  31.6545 0001819  95.5337 264.6003 13.18686815184335
ONEWEB-0397             
1 50477U 21132J   25250.08673257  .00000035  00000+0  55702-4 0  9994
2 50477  87.9175  31.6676 0001832  90.1576 269.9766 13.18685277184302
ONEWEB-0398             
1 50478U 21132K   25250.22640274 -.00000100  00000+0 -31748-3 0  9992
2 50478  87.8778  77.4235 0001534 102.7843 257.3457 13.11415298178528
ONEWEB-0399             
1 50479U 21132L   25250.06025469  .00000378  00000+0  10294-2 0  9995
2 50479  87.8767  77.4788 0002284  85.9442 274.1947 13.11423524178498
ONEWEB-0400             
1 50480U 21132M   25250.14116208  .00000107  00000+0  23866-3 0  9998
2 50480  87.9176  31.6469 0001640 102.8799 257.2516 13.18684198184306
ONEWEB-0401             
1 50481U 21132N   25250.10983856  .00000066  00000+0  13548-3 0  9996
2 50481  87.9178  31.6497 0001725  89.2714 270.8616 13.18685866184304
ONEWEB-0402             
1 50482U 21132P   25250.14942341  .00001482  00000+0  37261-2 0  9995
2 50482  87.9176  31.6350 0001447  80.4920 279.6375 13.18676296184333
